[{"OBJECT_NAME":"STARLINK-30257","OBJECT_ID":"2023-115F","EPOCH":"2026-03-09T04:31:59.086848","MEAN_MOTION":15.27583134,"ECCENTRICITY":4.864e-5,"INCLINATION":42.9962,"RA_OF_ASC_NODE":4.535,"ARG_OF_PERICENTER":232.5488,"MEAN_ANOMALY":127.5319,"EPHEMERIS_TYPE":0,"CLASSIFICATION_TYPE":"U","NORAD_CAT_ID":57526,"ELEMENT_SET_NO":999,"REV_AT_EPOCH":14227,"BSTAR":7.862592e-6,"MEAN_MOTION_DOT":-4.5e-7,"MEAN_MOTION_DDOT":0},{"OBJECT_NAME":"COSMOS 1975","OBJECT_ID":"1988-093A","EPOCH":"2026-03-09T14:15:08.474112","MEAN_MOTION":15.28069249,"ECCENTRICITY":0.0012117,"INCLINATION":82.5181,"RA_OF_ASC_NODE":117.7814,"ARG_OF_PERICENTER":163.8427,"MEAN_ANOMALY":196.3201,"EPHEMERIS_TYPE":0,"CLASSIFICATION_TYPE":"U","NORAD_CAT_ID":19573,"ELEMENT_SET_NO":999,"REV_AT_EPOCH":1939,"BSTAR":0.0002787,"MEAN_MOTION_DOT":7.676e-5,"MEAN_MOTION_DDOT":0}]
